full_name,epoch_mjd,a,e,i,om,w,ma,n,first_obs,H,per_y
"       (2006 QK181)",53999,42.93540998587123,.1247752474127804,19.61393117179509,172.7008549120576,170.8263184633914,.1164936577190143,.003503326808619774,2006-08-22,7.3,281.340091065004
"       (2006 QL181)",53970,43.13946533429703,.09861111358195815,1.862411864949876,81.87529447686688,262.3063060665713,.01070168556970352,.003478499430518912,2006-08-22,7.3,283.34812267614
"       (2007 CJ66)",54146,43.82853404414615,.02050275807002701,3.089207963271607,113.4225916052551,22.18400591041487,.01191422126571266,.003396789674499835,2007-02-14,7.3,290.164060132068
"       (2009 JA19)",54971,47.66522991476598,.3625032362589323,15.89672503475065,66.42393348858847,14.8387334879177,57.51036439186871,.002995032473734175,2009-05-14,7.3,329.087010578783
"       (2010 HG109)",55332,39.83642923664041,.2333982537592242,29.16440377713477,47.82181086664006,184.2835833434374,.0996810263772048,.003919976550361378,2010-04-21,7.3,251.436780476835
"       (2011 UM411)",57000,42.2123726395394,.1471864813644306,9.40177654604584,11.48907310326982,196.2535445848761,188.354252426825,.00359372159136574,2011-10-24,7.3,274.263394731417
"       (2013 RD98)",57000,39.41638001780985,.2319952706890637,19.5656556734479,145.0040208889127,104.3658796586004,125.0357852209661,.003982804318380305,2013-09-12,7.3,247.47042650802
"       (2006 HD123)",53885,41.51789825411068,.01840368793206441,2.637516568611832,72.35464401726942,97.24914636511765,64.55410850808101,.003684266468788676,2006-04-28,7.3047,267.523071883455
"       (2014 UF224)",56977,46.2314500855528,.1637078603156821,27.13634548020789,174.2879543415705,323.195380938112,275.5227331553716,.003135434989156436,2014-10-26,7.3579,314.350731804754
" 15807 (1994 GV9)",57000,43.92595285884958,.06420296367682798,.563504454932883,176.8321523050197,307.6468414404635,69.08654743185745,.003385495860897599,1994-05-05,7.4,291.132030244526
" 38084 (1999 HB12)",57000,55.82541541522104,.4165720771783665,13.14005946070513,166.3634544588819,66.27274754331157,356.5474675559209,.002362958687002324,1999-04-18,7.4,417.115326132905
" 69988 (1998 WA31)",57000,55.20038174948916,.4272546875799753,9.467846008033447,20.78146229264551,309.8446076672795,42.10256687815136,.002403205737137034,1998-10-22,7.4,410.129797934714
" 85627 (1998 HP151)",57000,43.95326297438628,.08532644729628187,1.513002478817505,55.94214692285956,250.889776271769,312.8778828253192,.003382341012545397,1998-04-28,7.4,291.403581043952
" 95625 (2002 GX32)",57000,53.11187963454261,.3773668189427836,13.93028129429142,28.13344766032701,185.5778642331897,16.79684368401888,.002546341022673369,2002-04-08,7.4,387.075523109925
"118378 (1999 HT11)",57000,43.81380592442839,.1131377292886766,5.056874090110287,87.87777750812319,187.3821422532997,321.560495916574,.003398502577361526,1999-04-17,7.4,290.017812531059
"131696 (2001 XT254)",57000,53.47243605591729,.3287541908634198,.5161903761917637,359.6323387744029,133.0137486323427,359.0991337292223,.002520630106559013,2001-12-09,7.4,391.02376854217
"181867 (1999 CV118)",57000,53.26748080652251,.2946935900982424,5.46710978018299,305.5795927768144,148.8355075150211,29.90331315802173,.002535191889489425,1999-02-10,7.4,388.777783430846
"181871 (1999 CO153)",57000,43.97720025784454,.0882723558627739,.8038739595971919,278.0295203525498,163.1277922294655,54.20063830829004,.003379579819130927,1999-02-12,7.4,291.6416643833
"181902 (1999 RD215)",57000,121.944922031793,.6913660755426297,25.94631485217397,210.3093458804616,138.3033637137057,6.922770463881419,.0007319113692089745,1999-09-06,7.4,1346.64704612088
"183964 (2004 DJ71)",57000,53.61248627845249,.3892951785324483,11.29592313620721,101.5618895450434,56.21416214822661,359.0439857746974,.00251075971472544,2004-02-26,7.4,392.560975702662
"308460 (2005 SC278)",57000,34.78844756052942,.06668351620417814,1.521473900162686,27.49578641705002,51.76048426915512,304.7522125496761,.004803430383380113,2005-09-22,7.4,205.192165744262
"       (1998 WV24)",57000,39.06792872100015,.03663352682113488,1.518470111549287,183.73268729,162.7728374686623,77.55881000764519,.004036207581876036,1998-11-18,7.4,244.196132972288
"       (1999 CF119)",57000,90.30750456111267,.5713820276641077,19.6806679121988,303.4011645967096,200.0571812000108,1.74805325174845,.001148466446266089,1999-02-11,7.4,858.210778879992
"       (1999 CJ119)",57000,45.65663325879583,.07311020850066355,3.196232619577473,313.3158701997807,187.5647561866491,5.515210368085661,.003194833642354682,1999-02-11,7.4,308.506292878875
"       (1999 CA132)",51241,43.96606505339681,.09794302216314377,12.0711085882723,154.8709783910873,.5277240206774405,.0719859004701519,.003380863810370094,1999-02-11,7.4,291.530904127032
"       (1999 CM153)",57000,46.01970957281787,.1428245293922436,.1987911297140539,92.3114294692417,4.388703353821587,57.58575270142471,.003157099457392035,1999-02-11,7.4,312.193612101706
"       (1999 CG154)",51438,42.98652866277914,.08730531373798958,.7659069885042882,100.189616198556,176.9211962760653,217.9490168745902,.00349707954284535,1999-02-11,7.4,281.842683671306
"       (1999 HJ12)",57000,43.04887941994673,.04355644623750581,4.546254567046151,122.4381331188713,225.5245918438053,255.6132124816029,.003489484690603676,1999-04-18,7.4,282.456113368718
"       (1999 OZ3)",57000,44.01133215840725,.1280677944726756,2.54808651185242,137.8044175636318,278.0257635315436,294.3818846922492,.003375649157096223,1999-07-21,7.4,291.981256788962
"       (1999 RY214)",57000,45.14123281330729,.1788206490363663,13.70133580995331,327.4449500698598,71.24590126310035,357.863679875972,.003249705089528614,1999-09-06,7.4,303.297147345308
"       (1999 RF215)",51469,43.9602065268759,9.249087652713991E-5,3.675203135228413,327.5791433894132,165.081863374962,195.1470214580586,.003381539678675444,1999-09-07,7.4,291.47263584783
"       (1999 RG215)",57000,46.28887342806748,.07018306086387704,.2439395231116552,293.0264102819622,115.4279929063011,313.8072044528465,.003129602335646968,1999-09-07,7.4,314.93658863333
"       (1999 RJ215)",57000,59.10816650880702,.4133491079247493,19.73121880440764,315.0043692469459,43.75536064406764,6.17221407010287,.002168866605073175,1999-09-07,7.4,454.443016948155
"       (2000 SF331)",51832,44.01967965796774,3.910128543710143E-5,4.085979905632508,91.69402744310881,225.641362486417,102.1503117917669,.003374689010606123,2000-09-23,7.4,292.064329563372
"       (2001 OK108)",57000,42.76154394935475,.03421771119232919,1.999899093253343,114.8155563792889,121.7595952460019,81.86737153931658,.003524715007789865,1999-07-20,7.4,279.632901153499
"       (2001 OY108)",52115,46.05201092767868,.09868297474723749,6.792851905151065,58.21316292968179,5.152970015345784,179.5693968728137,.003153778406794544,2001-07-24,7.4,312.522364045651
"       (2001 XC255)",52283,43.80543806424443,.0487919541970516,2.320878259831236,112.4901551615591,353.0557907913267,.09089446134007566,.003399476413728833,2001-12-09,7.4,289.93473212142
"       (2002 GW32)",57000,35.01791097333153,.07340660414902464,6.365922365196753,276.6733377591257,123.2381056877842,206.4142697164403,.004756294336684502,2002-04-08,7.4,207.225670574167
"       (2003 FD128)",57000,38.45311430454505,.02643581347195569,5.296111982890682,149.0859583306906,346.3416894865695,46.71962567473626,.004133393912389129,2003-03-31,7.4,238.454476940442
"       (2003 FZ129)",57000,62.18894094195541,.3890715435288211,5.787424890841577,28.02512114202521,161.0578875282251,9.150488428789716,.002009714344942203,2003-03-24,7.4,490.431033568555
"       (2003 HB57)",57000,162.3925719791651,.7654541694346852,15.48811467273938,197.8484697265501,10.66602822758211,1.028105148467714,.0004762717624920916,2003-04-26,7.4,2069.46193536704
"       (2003 HH57)",57000,44.15995721780187,.08991787779735756,1.431042436980664,39.14796045100154,151.1752453736498,19.79808429841259,.003358621841584209,2003-04-26,7.4,293.461523760785
"       (2003 SR317)",57000,39.3591325842585,.1645029648999508,8.359350566272941,175.6792707580928,118.0634862830825,62.19521245673923,.003991496896124888,2003-09-25,7.4,246.931491873248
"       (2003 TK58)",57000,43.24325725371553,.06066058602206096,3.351732134198625,67.42866230629672,207.0384902651807,169.5118950454267,.003465983372718009,2003-10-03,7.4,284.371324780659
"       (2003 UY291)",57000,49.37533032688438,.1620584351778839,3.54334567128817,358.3498146948233,18.05431809166048,40.89584123379218,.002840789491046419,2003-10-24,7.4,346.955058258997
"       (2003 UO292)",52949,39.38451621316199,.187932853433274,4.966548760320514,63.34489813967645,345.1153355013964,.06051173102190584,.003987638691475054,2003-10-22,7.4,247.170408260576
"       (2003 WS184)",52965,44.01083407850449,.05048423745381905,2.573507569005241,118.0465672056873,305.9127266267233,.005136278191995781,.003375706461659842,2003-11-20,7.4,291.976300238772
"       (2003 WW188)",52967,44.2513141664308,.0765284525471083,5.10473990488635,357.2498209639132,90.1596644857571,.002236081022700416,.003348226386793075,2003-11-21,7.4,294.37265271408
"       (2003 YP179)",57000,44.32969306867899,.08365767794153706,.9491408805015333,66.24110795573959,5.51425411818479,45.81895134451281,.003339350362975154,2003-12-24,7.4,295.155097918334
"       (2004 DK64)",53064,43.65078416630941,.1005761343660186,18.63339648431421,162.3308139893384,7.460796564428956,.001793008494549051,.003417558826936751,2004-02-26,7.4,288.400678167989
"       (2004 EQ95)",53080,44.6566993,0.0606887,5.48398,122.45491,38.84146,.003440000000001351,.003302738156503853,2004-03-15,7.4,298.427013181966
"       (2004 HE79)",57000,44.34273562047903,.09915249870323725,3.089289215991827,62.81199846749941,161.6146341771409,14.14069895861699,.003337877164038278,2004-04-24,7.4,295.285366995085
"       (2004 KB19)",57000,39.46175076979664,.2169440661511288,17.150518738288,43.96158861564118,286.2437714763178,297.7958084601119,.003975937509135492,2004-05-24,7.4,247.897830663306
